[{"OBJECT_NAME":"TOMORROW-R2","OBJECT_ID":"2023-084AG","EPOCH":"2026-03-09T21:19:23.098656","MEAN_MOTION":15.71879583,"ECCENTRICITY":0.00051142,"INCLINATION":97.5895,"RA_OF_ASC_NODE":222.1734,"ARG_OF_PERICENTER":248.1295,"MEAN_ANOMALY":111.9424,"EPHEMERIS_TYPE":0,"CLASSIFICATION_TYPE":"U","NORAD_CAT_ID":56962,"ELEMENT_SET_NO":999,"REV_AT_EPOCH":15332,"BSTAR":0.00081619373,"MEAN_MOTION_DOT":0.00107013,"MEAN_MOTION_DDOT":0},{"OBJECT_NAME":"STARLINK-11414 [DTC]","OBJECT_ID":"2024-209K","EPOCH":"2026-03-09T03:19:37.415136","MEAN_MOTION":15.6970802,"ECCENTRICITY":0.00016605,"INCLINATION":53.1573,"RA_OF_ASC_NODE":13.8077,"ARG_OF_PERICENTER":41.2442,"MEAN_ANOMALY":318.8701,"EPHEMERIS_TYPE":0,"CLASSIFICATION_TYPE":"U","NORAD_CAT_ID":61948,"ELEMENT_SET_NO":999,"REV_AT_EPOCH":7663,"BSTAR":0.0022421599,"MEAN_MOTION_DOT":0.00280403,"MEAN_MOTION_DDOT":0}]
